{
  "updatedAt": "2026-03-20T16:26:01.420Z",
  "entries": {
    "doory-sat-58500": {
      "fetchedAt": "2026-03-20T16:26:01.420Z",
      "fleetEntry": {
        "id": "doory-sat-58500",
        "name": "DOORY-SAT",
        "englishName": "DOORY-SAT",
        "domesticName": "DOORY-SAT",
        "color": "#f78fb3",
        "norad": "58500",
        "orbitClass": "leo",
        "orbitLabel": "LEO",
        "missionType": "technology",
        "missionLabel": "기술실증/학술",
        "operationalStatus": "비현역",
        "objectId": "2023-188A",
        "launchDate": "2023-12-04",
        "sourceDate": "2026-03-20",
        "sourceLabel": "Space-Track cached GP",
        "omm": {
          "CCSDS_OMM_VERS": "3.0",
          "COMMENT": "GENERATED VIA SPACE-TRACK.ORG API",
          "CREATION_DATE": "2026-03-20T14:46:35",
          "ORIGINATOR": "18 SPCS",
          "OBJECT_NAME": "DOORY-SAT",
          "OBJECT_ID": "2023-188A",
          "CENTER_NAME": "EARTH",
          "REF_FRAME": "TEME",
          "TIME_SYSTEM": "UTC",
          "MEAN_ELEMENT_THEORY": "SGP4",
          "EPOCH": "2026-03-20T12:08:31.125120",
          "MEAN_MOTION": 14.80381652,
          "ECCENTRICITY": 0.0008926,
          "INCLINATION": 46.9827,
          "RA_OF_ASC_NODE": 8.9194,
          "ARG_OF_PERICENTER": 332.0003,
          "MEAN_ANOMALY": 28.041,
          "EPHEMERIS_TYPE": 0,
          "CLASSIFICATION_TYPE": "U",
          "NORAD_CAT_ID": 58500,
          "ELEMENT_SET_NO": 999,
          "REV_AT_EPOCH": 12385,
          "BSTAR": 0.00018879,
          "MEAN_MOTION_DOT": 0.00001252,
          "MEAN_MOTION_DDOT": 0,
          "SEMIMAJOR_AXIS": "7006.257",
          "PERIOD": "97.272",
          "APOAPSIS": "634.375",
          "PERIAPSIS": "621.868",
          "OBJECT_TYPE": "PAYLOAD",
          "RCS_SIZE": "MEDIUM",
          "COUNTRY_CODE": "SKOR",
          "LAUNCH_DATE": "2023-12-04",
          "SITE": "JJSLA",
          "DECAY_DATE": null,
          "FILE": "5093702",
          "GP_ID": "316578471",
          "TLE_LINE0": "0 DOORY-SAT",
          "TLE_LINE1": "1 58500U 23188A   26079.50591580  .00001252  00000-0  18879-3 0  9993",
          "TLE_LINE2": "2 58500  46.9827   8.9194 0008926 332.0003  28.0410 14.80381652123855"
        }
      }
    },
    "contecsat-1-59117": {
      "fetchedAt": "2026-03-20T16:26:01.420Z",
      "fleetEntry": {
        "id": "contecsat-1-59117",
        "name": "CONTECSAT-1",
        "englishName": "CONTECSAT-1",
        "domesticName": "CONTECSAT-1",
        "color": "#9bdeac",
        "norad": "59117",
        "orbitClass": "leo",
        "orbitLabel": "LEO SSO",
        "missionType": "technology",
        "missionLabel": "기술실증/학술",
        "operationalStatus": "비현역",
        "objectId": "2024-043V",
        "launchDate": "2024-03-04",
        "sourceDate": "2026-03-20",
        "sourceLabel": "Space-Track cached GP",
        "omm": {
          "CCSDS_OMM_VERS": "3.0",
          "COMMENT": "GENERATED VIA SPACE-TRACK.ORG API",
          "CREATION_DATE": "2026-03-20T14:36:41",
          "ORIGINATOR": "18 SPCS",
          "OBJECT_NAME": "CONTECSAT-1",
          "OBJECT_ID": "2024-043V",
          "CENTER_NAME": "EARTH",
          "REF_FRAME": "TEME",
          "TIME_SYSTEM": "UTC",
          "MEAN_ELEMENT_THEORY": "SGP4",
          "EPOCH": "2026-03-20T13:06:08.632800",
          "MEAN_MOTION": 15.34863378,
          "ECCENTRICITY": 0.0010784,
          "INCLINATION": 97.5498,
          "RA_OF_ASC_NODE": 218.2491,
          "ARG_OF_PERICENTER": 184.4985,
          "MEAN_ANOMALY": 175.6163,
          "EPHEMERIS_TYPE": 0,
          "CLASSIFICATION_TYPE": "U",
          "NORAD_CAT_ID": 59117,
          "ELEMENT_SET_NO": 999,
          "REV_AT_EPOCH": 11364,
          "BSTAR": 0.00027254,
          "MEAN_MOTION_DOT": 0.00009148,
          "MEAN_MOTION_DDOT": 0,
          "SEMIMAJOR_AXIS": "6839.463",
          "PERIOD": "93.819",
          "APOAPSIS": "468.704",
          "PERIAPSIS": "453.953",
          "OBJECT_TYPE": "PAYLOAD",
          "RCS_SIZE": "MEDIUM",
          "COUNTRY_CODE": "SKOR",
          "LAUNCH_DATE": "2024-03-04",
          "SITE": "AFWTR",
          "DECAY_DATE": null,
          "FILE": "5093617",
          "GP_ID": "316576164",
          "TLE_LINE0": "0 CONTECSAT-1",
          "TLE_LINE1": "1 59117U 24043V   26079.54593325  .00009148  00000-0  27254-3 0  9991",
          "TLE_LINE2": "2 59117  97.5498 218.2491 0010784 184.4985 175.6163 15.34863378113645"
        }
      }
    },
    "korsat-1-59452": {
      "fetchedAt": "2026-03-20T16:26:01.420Z",
      "fleetEntry": {
        "id": "korsat-1-59452",
        "name": "KORSAT-1",
        "englishName": "KORSAT-1",
        "domesticName": "KORSAT-1",
        "color": "#79c6a5",
        "norad": "59452",
        "orbitClass": "leo",
        "orbitLabel": "LEO",
        "missionType": "earth-observation",
        "missionLabel": "지구관측",
        "operationalStatus": "비현역",
        "objectId": "2024-066L",
        "launchDate": "2024-04-07",
        "sourceDate": "2026-03-20",
        "sourceLabel": "Space-Track cached GP",
        "omm": {
          "CCSDS_OMM_VERS": "3.0",
          "COMMENT": "GENERATED VIA SPACE-TRACK.ORG API",
          "CREATION_DATE": "2026-03-20T14:46:35",
          "ORIGINATOR": "18 SPCS",
          "OBJECT_NAME": "KORSAT-1",
          "OBJECT_ID": "2024-066L",
          "CENTER_NAME": "EARTH",
          "REF_FRAME": "TEME",
          "TIME_SYSTEM": "UTC",
          "MEAN_ELEMENT_THEORY": "SGP4",
          "EPOCH": "2026-03-20T07:23:39.539328",
          "MEAN_MOTION": 14.99813995,
          "ECCENTRICITY": 0.0010652,
          "INCLINATION": 45.4124,
          "RA_OF_ASC_NODE": 344.8709,
          "ARG_OF_PERICENTER": 265.3277,
          "MEAN_ANOMALY": 94.6385,
          "EPHEMERIS_TYPE": 0,
          "CLASSIFICATION_TYPE": "U",
          "NORAD_CAT_ID": 59452,
          "ELEMENT_SET_NO": 999,
          "REV_AT_EPOCH": 10672,
          "BSTAR": 0.00027918,
          "MEAN_MOTION_DOT": 0.00003279,
          "MEAN_MOTION_DDOT": 0,
          "SEMIMAJOR_AXIS": "6945.608",
          "PERIOD": "96.012",
          "APOAPSIS": "574.871",
          "PERIAPSIS": "560.074",
          "OBJECT_TYPE": "PAYLOAD",
          "RCS_SIZE": "LARGE",
          "COUNTRY_CODE": "SKOR",
          "LAUNCH_DATE": "2024-04-07",
          "SITE": "AFETR",
          "DECAY_DATE": null,
          "FILE": "5093722",
          "GP_ID": "316579224",
          "TLE_LINE0": "0 KORSAT-1",
          "TLE_LINE1": "1 59452U 24066L   26079.30809652  .00003279  00000-0  27918-3 0  9991",
          "TLE_LINE2": "2 59452  45.4124 344.8709 0010652 265.3277  94.6385 14.99813995106727"
        }
      }
    },
    "neonsat-1-59587": {
      "fetchedAt": "2026-03-20T16:26:01.420Z",
      "fleetEntry": {
        "id": "neonsat-1-59587",
        "name": "NEONSAT-1",
        "englishName": "NEONSAT-1",
        "domesticName": "NEONSAT-1",
        "color": "#ffd166",
        "norad": "59587",
        "orbitClass": "leo",
        "orbitLabel": "LEO SSO",
        "missionType": "earth-observation",
        "missionLabel": "지구관측",
        "operationalStatus": "비현역",
        "objectId": "2024-077A",
        "launchDate": "2024-04-23",
        "sourceDate": "2026-03-20",
        "sourceLabel": "Space-Track cached GP",
        "omm": {
          "CCSDS_OMM_VERS": "3.0",
          "COMMENT": "GENERATED VIA SPACE-TRACK.ORG API",
          "CREATION_DATE": "2026-03-20T14:36:41",
          "ORIGINATOR": "18 SPCS",
          "OBJECT_NAME": "NEONSAT-1",
          "OBJECT_ID": "2024-077A",
          "CENTER_NAME": "EARTH",
          "REF_FRAME": "TEME",
          "TIME_SYSTEM": "UTC",
          "MEAN_ELEMENT_THEORY": "SGP4",
          "EPOCH": "2026-03-20T11:43:07.805856",
          "MEAN_MOTION": 15.3613909,
          "ECCENTRICITY": 0.0008924,
          "INCLINATION": 97.3514,
          "RA_OF_ASC_NODE": 163.4769,
          "ARG_OF_PERICENTER": 359.0968,
          "MEAN_ANOMALY": 1.0258,
          "EPHEMERIS_TYPE": 0,
          "CLASSIFICATION_TYPE": "U",
          "NORAD_CAT_ID": 59587,
          "ELEMENT_SET_NO": 999,
          "REV_AT_EPOCH": 10610,
          "BSTAR": 0.00024407,
          "MEAN_MOTION_DOT": 0.00008523,
          "MEAN_MOTION_DDOT": 0,
          "SEMIMAJOR_AXIS": "6835.676",
          "PERIOD": "93.742",
          "APOAPSIS": "463.641",
          "PERIAPSIS": "451.441",
          "OBJECT_TYPE": "PAYLOAD",
          "RCS_SIZE": "MEDIUM",
          "COUNTRY_CODE": "SKOR",
          "LAUNCH_DATE": "2024-04-23",
          "SITE": "RLLC",
          "DECAY_DATE": null,
          "FILE": "5093623",
          "GP_ID": "316576600",
          "TLE_LINE0": "0 NEONSAT-1",
          "TLE_LINE1": "1 59587U 24077A   26079.48828479  .00008523  00000-0  24407-3 0  9996",
          "TLE_LINE2": "2 59587  97.3514 163.4769 0008924 359.0968   1.0258 15.36139090106105"
        }
      }
    }
  }
}